{"type": "FeatureCollection", "features": [ {"type": "Feature", "properties": {"norad_id": 17070, "name": "POLAR BEAR", "group": "nnss", "lat": -63.74040415982252, "lon": -177.5419772894514, "alt_km": 1012.674748540212, "timestamp": "2025-12-26T04:40:06.055046+00:00", "meta": {"OBJECT_NAME": "POLAR BEAR", "OBJECT_ID": "1986-088A", "EPOCH": "2025-12-25T22:33:59.850720", "MEAN_MOTION": 13.75253504, "ECCENTRICITY": 0.0041274, "INCLINATION": 89.617, "RA_OF_ASC_NODE": 183.2451, "ARG_OF_PERICENTER": 81.3071, "MEAN_ANOMALY": 37.3379, "EPHEMERIS_TYPE": 0, "CLASSIFICATION_TYPE": "U", "NORAD_CAT_ID": 17070, "ELEMENT_SET_NO": 999, "REV_AT_EPOCH": 96160, "BSTAR": 0.00010387943, "MEAN_MOTION_DOT": 1.12e-06, "MEAN_MOTION_DDOT": 0}, "tle": {"line1": "1 17070U 86088A   25359.94027605  .00000112  00000+0  10388-3 0  9998", "line2": "2 17070  89.6170 183.2451 0041274  81.3071  37.3379 13.75253504961609"}}, "geometry": {"type": "Point", "coordinates": [-177.5419772894514, -63.74040415982252]}}, {"type": "Feature", "properties": {"norad_id": 18361, "name": "OSCAR 27", "group": "nnss", "lat": 13.976757056327799, "lon": -100.13168372823014, "alt_km": 1018.5393909185768, "timestamp": "2025-12-26T04:40:06.055056+00:00", "meta": {"OBJECT_NAME": "OSCAR 27", "OBJECT_ID": "1987-080A", "EPOCH": "2025-12-25T18:54:56.214432", "MEAN_MOTION": 13.44909401, "ECCENTRICITY": 0.01040164, "INCLINATION": 90.3736, "RA_OF_ASC_NODE": 79.7601, "ARG_OF_PERICENTER": 186.2684, "MEAN_ANOMALY": 173.717, "EPHEMERIS_TYPE": 0, "CLASSIFICATION_TYPE": "U", "NORAD_CAT_ID": 18361, "ELEMENT_SET_NO": 999, "REV_AT_EPOCH": 87732, "BSTAR": 0.00017034191, "MEAN_MOTION_DOT": 1.12e-06, "MEAN_MOTION_DDOT": 0}, "tle": {"line1": "1 18361U 87080A   25359.78815063  .00000112  00000+0  17034-3 0  9995", "line2": "2 18361  90.3736  79.7601 0104016 186.2684 173.7170 13.44909401877324"}}, "geometry": {"type": "Point", "coordinates": [-100.13168372823014, 13.976757056327799]}}, {"type": "Feature", "properties": {"norad_id": 18362, "name": "OSCAR 29", "group": "nnss", "lat": 24.529293603156564, "lon": -99.59348824377903, "alt_km": 1044.2881678932927, "timestamp": "2025-12-26T04:40:06.055067+00:00", "meta": {"OBJECT_NAME": "OSCAR 29", "OBJECT_ID": "1987-080B", "EPOCH": "2025-12-25T19:34:53.500800", "MEAN_MOTION": 13.44450875, "ECCENTRICITY": 0.01048208, "INCLINATION": 90.3748, "RA_OF_ASC_NODE": 80.2212, "ARG_OF_PERICENTER": 209.3307, "MEAN_ANOMALY": 275.5585, "EPHEMERIS_TYPE": 0, "CLASSIFICATION_TYPE": "U", "NORAD_CAT_ID": 18362, "ELEMENT_SET_NO": 999, "REV_AT_EPOCH": 87685, "BSTAR": 0.00015344721, "MEAN_MOTION_DOT": 1e-06, "MEAN_MOTION_DDOT": 0}, "tle": {"line1": "1 18362U 87080B   25359.81589700  .00000100  00000+0  15345-3 0  9996", "line2": "2 18362  90.3748  80.2212 0104820 209.3307 275.5585 13.44450875876859"}}, "geometry": {"type": "Point", "coordinates": [-99.59348824377903, 24.529293603156564]}}, {"type": "Feature", "properties": {"norad_id": 19070, "name": "OSCAR 23", "group": "nnss", "lat": -27.81162550213438, "lon": -163.35991032918426, "alt_km": 1098.225460423013, "timestamp": "2025-12-26T04:40:06.055077+00:00", "meta": {"OBJECT_NAME": "OSCAR 23", "OBJECT_ID": "1988-033A", "EPOCH": "2025-12-25T15:34:55.886016", "MEAN_MOTION": 13.27789128, "ECCENTRICITY": 0.0190526, "INCLINATION": 90.3203, "RA_OF_ASC_NODE": 16.7922, "ARG_OF_PERICENTER": 144.1187, "MEAN_ANOMALY": 336.7875, "EPHEMERIS_TYPE": 0, "CLASSIFICATION_TYPE": "U", "NORAD_CAT_ID": 19070, "ELEMENT_SET_NO": 999, "REV_AT_EPOCH": 82424, "BSTAR": 9.5671e-05, "MEAN_MOTION_DOT": 5.7e-07, "MEAN_MOTION_DDOT": 0}, "tle": {"line1": "1 19070U 88033A   25359.64925794  .00000057  00000+0  95671-4 0  9992", "line2": "2 19070  90.3203  16.7922 0190526 144.1187 336.7875 13.27789128824249"}}, "geometry": {"type": "Point", "coordinates": [-163.35991032918426, -27.81162550213438]}}, {"type": "Feature", "properties": {"norad_id": 19071, "name": "OSCAR 32", "group": "nnss", "lat": -36.51037480111202, "lon": 17.179313601156327, "alt_km": 1299.0066938034788, "timestamp": "2025-12-26T04:40:06.055088+00:00", "meta": {"OBJECT_NAME": "OSCAR 32", "OBJECT_ID": "1988-033B", "EPOCH": "2025-12-25T23:44:01.850784", "MEAN_MOTION": 13.27955849, "ECCENTRICITY": 0.01892807, "INCLINATION": 90.3208, "RA_OF_ASC_NODE": 16.9353, "ARG_OF_PERICENTER": 130.1114, "MEAN_ANOMALY": 291.6596, "EPHEMERIS_TYPE": 0, "CLASSIFICATION_TYPE": "U", "NORAD_CAT_ID": 19071, "ELEMENT_SET_NO": 999, "REV_AT_EPOCH": 82441, "BSTAR": 0.0001264526, "MEAN_MOTION_DOT": 7.3e-07, "MEAN_MOTION_DDOT": 0}, "tle": {"line1": "1 19071U 88033B   25359.98891031  .00000073  00000+0  12645-3 0  9993", "line2": "2 19071  90.3208  16.9353 0189280 130.1114 291.6596 13.27955849824418"}}, "geometry": {"type": "Point", "coordinates": [17.179313601156327, -36.51037480111202]}}, {"type": "Feature", "properties": {"norad_id": 19223, "name": "NOVA 2", "group": "nnss", "lat": -81.69360528084327, "lon": 78.16146644392794, "alt_km": 1170.2261521921364, "timestamp": "2025-12-26T04:40:06.055099+00:00", "meta": {"OBJECT_NAME": "NOVA 2", "OBJECT_ID": "1988-052A", "EPOCH": "2025-12-25T16:57:54.227232", "MEAN_MOTION": 13.22937418, "ECCENTRICITY": 0.00294853, "INCLINATION": 89.9863, "RA_OF_ASC_NODE": 78.256, "ARG_OF_PERICENTER": 340.9131, "MEAN_ANOMALY": 136.6445, "EPHEMERIS_TYPE": 0, "CLASSIFICATION_TYPE": "U", "NORAD_CAT_ID": 19223, "ELEMENT_SET_NO": 999, "REV_AT_EPOCH": 81119, "BSTAR": 0.00013151637, "MEAN_MOTION_DOT": 6.4e-07, "MEAN_MOTION_DDOT": 0}, "tle": {"line1": "1 19223U 88052A   25359.70687763  .00000064  00000+0  13152-3 0  9992", "line2": "2 19223  89.9863  78.2560 0029485 340.9131 136.6445 13.22937418811198"}}, "geometry": {"type": "Point", "coordinates": [78.16146644392794, -81.69360528084327]}}, {"type": "Feature", "properties": {"norad_id": 19419, "name": "OSCAR 25", "group": "nnss", "lat": -47.600316895778064, "lon": -159.74919966413663, "alt_km": 1039.5903232437568, "timestamp": "2025-12-26T04:40:06.055109+00:00", "meta": {"OBJECT_NAME": "OSCAR 25", "OBJECT_ID": "1988-074A", "EPOCH": "2025-12-25T15:36:48.885120", "MEAN_MOTION": 13.42625604, "ECCENTRICITY": 0.0095249, "INCLINATION": 90.0336, "RA_OF_ASC_NODE": 20.2858, "ARG_OF_PERICENTER": 208.5252, "MEAN_ANOMALY": 271.0137, "EPHEMERIS_TYPE": 0, "CLASSIFICATION_TYPE": "U", "NORAD_CAT_ID": 19419, "ELEMENT_SET_NO": 999, "REV_AT_EPOCH": 82813, "BSTAR": 0.00011627, "MEAN_MOTION_DOT": 7.6e-07, "MEAN_MOTION_DDOT": 0}, "tle": {"line1": "1 19419U 88074A   25359.65056580  .00000076  00000+0  11627-3 0  9992", "line2": "2 19419  90.0336  20.2858 0095249 208.5252 271.0137 13.42625604828131"}}, "geometry": {"type": "Point", "coordinates": [-159.74919966413663, -47.600316895778064]}}, {"type": "Feature", "properties": {"norad_id": 19420, "name": "OSCAR 31", "group": "nnss", "lat": 72.0107351995177, "lon": -159.25102178000208, "alt_km": 1096.0420400475969, "timestamp": "2025-12-26T04:40:06.055120+00:00", "meta": {"OBJECT_NAME": "OSCAR 31", "OBJECT_ID": "1988-074B", "EPOCH": "2025-12-25T14:24:12.037248", "MEAN_MOTION": 13.4258666, "ECCENTRICITY": 0.0093641, "INCLINATION": 90.0354, "RA_OF_ASC_NODE": 20.6378, "ARG_OF_PERICENTER": 202.82, "MEAN_ANOMALY": 275.1045, "EPHEMERIS_TYPE": 0, "CLASSIFICATION_TYPE": "U", "NORAD_CAT_ID": 19420, "ELEMENT_SET_NO": 999, "REV_AT_EPOCH": 82823, "BSTAR": 0.00010561, "MEAN_MOTION_DOT": 7e-07, "MEAN_MOTION_DDOT": 0}, "tle": {"line1": "1 19420U 88074B   25359.60013932  .00000070  00000+0  10561-3 0  9993", "line2": "2 19420  90.0354  20.6378 0093641 202.8200 275.1045 13.42586660828230"}}, "geometry": {"type": "Point", "coordinates": [-159.25102178000208, 72.0107351995177]}}]}